OTB-3-GAZELLE           
1 54023U 22127A   23298.54813712  .00000216  00000+0  78876-4 0  9991
2 54023  98.3324 293.2805 0012529 218.7738 141.2553 14.41925384 55168
ASO-S                   
1 54029U 22129A   23298.58612863  .00000268  00000+0  78726-4 0  9998
2 54029  98.2700 302.5922 0014863 171.5704 188.5743 14.51122637 55332
HJ-2E                   
1 54035U 22132A   23298.55188204  .00010831  00000+0  44258-3 0  9992
2 54035  97.3911 303.5720 0009306 120.1714 240.0446 15.24510422 57483
COSMOS 2561             
1 54109U 22137A   23298.57310139  .00020407  00000+0  33943-3 0  9994
2 54109  97.0444  18.9778 0013506 138.8485 221.3790 15.51974412 57310
GONETS-M 23             
1 54150U 22139A   23298.53613252  .00000026  00000+0  11847-3 0  9994
2 54150  82.5077 228.3219 0020738 165.7800 194.3867 12.42891476 45685
GONETS-M 24             
1 54151U 22139B   23298.50723038  .00000032  00000+0  16202-3 0  9993
2 54151  82.4996 228.0500 0015479 174.6577 185.4670 12.42890710 45684
GONETS-M 25             
1 54152U 22139C   23297.60838860  .00000024  00000+0  10034-3 0  9992
2 54152  82.5059 228.7796 0019257 176.5589 183.5626 12.42881393 45577
SKIF-D                  
1 54153U 22139D   23298.14049321  .00000044  00000+0  00000+0 0  9999
2 54153  89.9979  96.7918 0008214 112.3842 247.7508  5.00428064 15779
MATS                    
1 54227U 22147A   23298.58620359  .00002434  00000+0  22716-3 0  9991
2 54227  97.6599 297.1717 0012444 195.3533 164.7312 14.95051764 52974
JILIN-1 GAOFEN 03D54    
1 54254U 22155D   23298.59556944  .00010060  00000+0  52731-3 0  9993
2 54254  97.5512  44.1633 0013953 181.1588 178.9614 15.15893143 51894
EOS-6 (OCEANSAT-3)      
1 54361U 22158A   23298.56476435  .00000496  00000+0  14840-3 0  9999
2 54361  98.3545  33.7943 0001236 110.6670 249.4655 14.46981585 48195
THYBOLT-1               
1 54363U 22158C   23298.50750613  .00039277  00000+0  10483-2 0  9995
2 54363  97.4435  37.8839 0007752 168.6753 191.4668 15.37988347 50847
THYBOLT-2               
1 54364U 22158D   23297.55218765  .00038367  00000+0  10364-2 0  9994
2 54364  97.4434  36.8678 0007616 172.4215 187.7146 15.37622258 50690
INS-2B                  
1 54365U 22158E   23297.58782894  .00035096  00000+0  97612-3 0  9995
2 54365  97.4399  36.6338 0008301 180.3685 179.7555 15.36729165 50692
ANAND                   
1 54366U 22158F   23298.87911573  .00027483  00000+0  85054-3 0  9995
2 54366  97.4399  37.2899 0008457 173.5316 186.6037 15.33413121 50858
ASTROCAST-0304          
1 54367U 22158G   23298.56739994  .00009270  00000+0  35155-3 0  9998
2 54367  97.4430  36.0524 0009013 182.6729 177.4463 15.27055292 50726
ASTROCAST-0303          
1 54368U 22158H   23298.54706618  .00032191  00000+0  11815-2 0  9998
2 54368  97.4469  36.2089 0006982 200.9845 159.1108 15.27863586 50739
ASTROCAST-0302          
1 54369U 22158J   23297.55091578  .00009960  00000+0  37523-3 0  9994
2 54369  97.4456  35.2190 0007298 185.5204 174.5955 15.27263573 50580
ASTROCAST-0301          
1 54370U 22158K   23297.60064644  .00008844  00000+0  33391-3 0  9995
2 54370  97.4470  35.3463 0008040 196.8722 163.2251 15.27222411 50599
2022-167A               
1 54682U 22167A   23297.63760254  .00021130  00000+0  96295-3 0  9999
2 54682  97.5727  75.1284 0011195 245.1837 114.8234 15.20629941 48338
CAS-5A (FO-118)         
1 54684U 22167C   23297.60370326  .00015750  00000+0  77651-3 0  9991
2 54684  97.5786  74.7511 0012117 248.4565 111.5378 15.17956195 48289
DONGPO 09               
1 54685U 22167D   23297.59000187  .00008775  00000+0  48297-3 0  9998
2 54685  97.5857  74.3897 0007961 259.8696 100.1638 15.14258132 48246
DONGPO 08               
1 54686U 22167E   23297.62270297  .00007784  00000+0  43174-3 0  9992
2 54686  97.5805  74.1526 0008640 279.2616  80.7638 15.14016735 48244
2022-167F               
1 54687U 22167F   23298.88992028  .00014658  00000+0  73725-3 0  9998
2 54687  97.5731  75.6790 0012996 253.5024 106.4781 15.17265751 48465
DONGPO 10               
1 54689U 22167H   23297.59716787  .00008960  00000+0  49792-3 0  9999
2 54689  97.5879  74.4763 0011362 246.2098 113.7942 15.13879173 48244
2022-167M               
1 54693U 22167M   23297.63078740  .00023688  00000+0  10343-2 0  9992
2 54693  97.5779  75.6818 0011724 246.0470 113.9539 15.22064937 48312
JILIN-1 GAOFEN 03D48    
1 54695U 22167P   23297.60804806  .00008964  00000+0  49589-3 0  9996
2 54695  97.5816  74.3652 0011839 264.1033  95.8849 15.14037958 48250
CZ-2D R/B               
1 54747U 22171B   23298.54293893  .00367796  00000+0  20353-2 0  9999
2 54747  34.9767 103.0791 0014852 356.6674   3.3956 15.77434403 48526
STAR VIBE               
1 55009U 23001A   23298.62258332  .00005350  00000+0  28513-3 0  9994
2 55009  97.4620 355.4366 0008126 298.3791  61.6622 15.15585159 44788
BRO-8                   
1 55011U 23001C   23297.62667504  .00006098  00000+0  32434-3 0  9998
2 55011  97.4680 354.6850 0009168 303.7675  56.2684 15.15593428 44635
CONNECTA T1.2           
1 55012U 23001D   23298.05749152  .00009799  00000+0  50161-3 0  9995
2 55012  97.4696 355.3990 0009821 296.9743  63.0486 15.16778262 44718
BIRKELAND               
1 55015U 23001G   23297.59142703  .00008713  00000+0  43312-3 0  9990
2 55015  97.4680 355.1992 0008625 291.5782  68.4533 15.17851326 44669
ION SCV-008             
1 55051U 23001AU  23298.19418250  .00003176  00000+0  18796-3 0  9996
2 55051  97.6300  12.6119 0012821 359.6661   0.4558 15.12107970 44646
ION SCV-007             
1 55060U 23001BD  23297.43642928  .00000862  00000+0  13545-3 0  9999
2 55060  98.0336 357.4374 0012545 197.2165 162.8620 14.75066586 43592
NSL-2                   
1 55067U 23001BL  23297.13393416  .00027391  00000+0  97818-3 0  9999
2 55067  97.4659 357.1613 0010885 274.4415  85.5581 15.28765161 44754
TAUSAT-2                
1 55073U 23001BS  23297.40328659  .00012255  00000+0  54256-3 0  9995
2 55073  97.4636 356.0550 0013463 258.1464 101.8262 15.21716394 44713
FLOCK 4Y-23             
1 55080U 23001BZ  23297.14850291  .00012117  00000+0  54730-3 0  9990
2 55080  97.4623 355.7113 0012803 279.1961  80.7826 15.21043203 44678
HUYGENS                 
1 55093U 23001CN  23298.59412499  .00004760  00000+0  23870-3 0  9994
2 55093  97.4635 356.2707 0014088 268.3092  91.6528 15.17733803 44837
BDSAT-2                 
1 55098U 23001CT  23297.13178095  .00016058  00000+0  70360-3 0  9998
2 55098  97.4675 355.9437 0013133 273.1617  86.8116 15.22012643 44678
SHARJAHSAT-1            
1 55104U 23001CZ  23298.59026925  .00006572  00000+0  34450-3 0  9991
2 55104  97.4638 355.5556 0009999 298.9532  61.0698 15.16068505 44782
2023-003A               
1 55133U 23003A   23297.75838782  .00009322  00000+0  45737-3 0  9990
2 55133  97.2528  15.5320 0005221 344.8828  15.2250 15.18297685 43728
2023-007N               
1 55260U 23007N   23298.90262139  .00033968  00000+0  80148-3 0  9998
2 55260  97.3415  12.0471 0006423  20.2334 339.9166 15.41790811 43486
2023-007P               
1 55261U 23007P   23298.55441718  .00020785  00000+0  57081-3 0  9995
2 55261  97.3419  10.8243 0008428  29.3608 330.8109 15.37228144 43370
ION SCV-009             
1 55441U 23014BC  23298.50590781  .00071805  00000+0  53900-3 0  9998
2 55441  70.0033  67.1103 0007474 300.7682  59.2778 15.72216873 42028
EOS-7                   
1 55562U 23019A   23298.72339675  .00032245  00000+0  65281-3 0  9994
2 55562  37.1841 288.4298 0002942 343.8202 183.5299 15.45539620 39817
AZAADISAT-2             
1 55563U 23019B   23298.29076735  .00217446  00000+0  11193-2 0  9992
2 55563  37.1729 263.0215 0005863 177.1682 182.9124 15.79604791 40053
HORUS 1                 
1 55690U 23025A   23298.58128279  .00007632  00000+0  32655-3 0  9994
2 55690  97.4511  11.0730 0006361 144.7016 215.4643 15.23083432 37045
HORUS 2                 
1 55844U 23032A   23298.87742027  .00009287  00000+0  39376-3 0  9993
2 55844  97.4561  11.4254 0005449 178.5827 181.5426 15.23334804 34521
GLOBAL-19               
1 55982U 23041B   23297.48329179  .00021170  00000+0  53975-3 0  9997
2 55982  42.0138  81.9064 0023161 288.8196  71.0132 15.38807695 33026
DEWASAT-2               
1 56180U 23054C   23297.60222705  .00013414  00000+0  50224-3 0  9999
2 56180  97.3903 190.9518 0007597 314.6712  45.3907 15.27388962 29884
KILICSAT                
1 56181U 23054D   23297.63308877  .00014637  00000+0  56070-3 0  9991
2 56181  97.3857 190.8110 0006742 313.0298  47.0375 15.26614714 29898
SSS-2B                  
1 56184U 23054G   23297.54518674  .00016283  00000+0  61714-3 0  9992
2 56184  97.3920 190.9347 0007809 311.8439  48.2133 15.26937414 29882
BRO-9                   
1 56185U 23054H   23298.64639770  .00010751  00000+0  43885-3 0  9999
2 56185  97.3831 191.5000 0006794 298.5325  61.5228 15.24566025 30030
CIRBE                   
1 56188U 23054L   23297.51555585  .00023450  00000+0  84160-3 0  9999
2 56188  97.3876 191.0062 0006201 303.8961  56.1689 15.28671888 29895
ION SCV-010             
1 56192U 23054Q   23297.45594707  .00003918  00000+0  28899-3 0  9990
2 56192  97.4911 188.3847 0012202 199.8453 160.2300 15.03800478 29594
GHOST-1                 
1 56195U 23054T   23297.28004168  .00008470  00000+0  34262-3 0  9990
2 56195  97.3848 190.3368 0008250 286.1684  73.8645 15.24932085 29831
GHOST-2                 
1 56197U 23054V   23297.42114928  .00009577  00000+0  37810-3 0  9995
2 56197  97.3843 190.5962 0008772 286.8966  73.1310 15.25703668 29868
TOMORROW-R1             
1 56199U 23054X   23297.42411463  .00012545  00000+0  47887-3 0  9995
2 56199  97.3869 190.7948 0008913 289.8865  70.1413 15.26753535 29873
FACSAT-2                
1 56205U 23054AD  23298.62923425  .00008495  00000+0  32087-3 0  9997
2 56205  97.3892 192.2846 0011552 270.6350  89.3566 15.27188784 30075
